[{"OBJECT_NAME":"STARLINK-35047","OBJECT_ID":"2025-218R","EPOCH":"2025-12-16T04:17:12.061248","MEAN_MOTION":15.05654245,"ECCENTRICITY":0.00019747,"INCLINATION":97.6025,"RA_OF_ASC_NODE":210.6381,"ARG_OF_PERICENTER":86.3705,"MEAN_ANOMALY":273.7748,"EPHEMERIS_TYPE":0,"CLASSIFICATION_TYPE":"U","NORAD_CAT_ID":65806,"ELEMENT_SET_NO":999,"REV_AT_EPOCH":1240,"BSTAR":0.00022867486,"MEAN_MOTION_DOT":3.241e-5,"MEAN_MOTION_DDOT":0},{"OBJECT_NAME":"STARLINK-35285","OBJECT_ID":"2025-218S","EPOCH":"2025-12-16T04:25:10.518528","MEAN_MOTION":15.05654905,"ECCENTRICITY":0.00025615,"INCLINATION":97.6022,"RA_OF_ASC_NODE":210.6305,"ARG_OF_PERICENTER":79.011,"MEAN_ANOMALY":281.1405,"EPHEMERIS_TYPE":0,"CLASSIFICATION_TYPE":"U","NORAD_CAT_ID":65807,"ELEMENT_SET_NO":999,"REV_AT_EPOCH":1240,"BSTAR":0.0002038553,"MEAN_MOTION_DOT":2.882e-5,"MEAN_MOTION_DDOT":0},{"OBJECT_NAME":"STARLINK-34580","OBJECT_ID":"2025-218T","EPOCH":"2025-12-16T04:13:13.432224","MEAN_MOTION":15.05670871,"ECCENTRICITY":0.00017483,"INCLINATION":97.6025,"RA_OF_ASC_NODE":210.6413,"ARG_OF_PERICENTER":77.5763,"MEAN_ANOMALY":282.5659,"EPHEMERIS_TYPE":0,"CLASSIFICATION_TYPE":"U","NORAD_CAT_ID":65808,"ELEMENT_SET_NO":999,"REV_AT_EPOCH":1240,"BSTAR":0.00042063547,"MEAN_MOTION_DOT":6.017e-5,"MEAN_MOTION_DDOT":0},{"OBJECT_NAME":"STARLINK-35289","OBJECT_ID":"2025-218U","EPOCH":"2025-12-16T04:01:15.227040","MEAN_MOTION":15.05653588,"ECCENTRICITY":0.0001897,"INCLINATION":97.603,"RA_OF_ASC_NODE":210.6519,"ARG_OF_PERICENTER":88.9586,"MEAN_ANOMALY":271.1858,"EPHEMERIS_TYPE":0,"CLASSIFICATION_TYPE":"U","NORAD_CAT_ID":65809,"ELEMENT_SET_NO":999,"REV_AT_EPOCH":1240,"BSTAR":0.0002502529,"MEAN_MOTION_DOT":3.552e-5,"MEAN_MOTION_DDOT":0},{"OBJECT_NAME":"STARLINK-35268","OBJECT_ID":"2025-218V","EPOCH":"2025-12-16T03:49:17.700960","MEAN_MOTION":15.05654028,"ECCENTRICITY":0.00022166,"INCLINATION":97.6044,"RA_OF_ASC_NODE":210.6635,"ARG_OF_PERICENTER":85.793,"MEAN_ANOMALY":274.355,"EPHEMERIS_TYPE":0,"CLASSIFICATION_TYPE":"U","NORAD_CAT_ID":65810,"ELEMENT_SET_NO":999,"REV_AT_EPOCH":1240,"BSTAR":0.00028891076,"MEAN_MOTION_DOT":4.111e-5,"MEAN_MOTION_DDOT":0},{"OBJECT_NAME":"STARLINK-35224","OBJECT_ID":"2025-218W","EPOCH":"2025-12-16T03:53:16.939104","MEAN_MOTION":15.05653932,"ECCENTRICITY":0.00027297,"INCLINATION":97.6039,"RA_OF_ASC_NODE":210.6597,"ARG_OF_PERICENTER":76.1343,"MEAN_ANOMALY":284.0187,"EPHEMERIS_TYPE":0,"CLASSIFICATION_TYPE":"U","NORAD_CAT_ID":65811,"ELEMENT_SET_NO":999,"REV_AT_EPOCH":1240,"BSTAR":0.00026408805,"MEAN_MOTION_DOT":3.752e-5,"MEAN_MOTION_DDOT":0},{"OBJECT_NAME":"STARLINK-35271","OBJECT_ID":"2025-218X","EPOCH":"2025-12-16T03:37:20.258688","MEAN_MOTION":15.05656257,"ECCENTRICITY":0.00022964,"INCLINATION":97.6045,"RA_OF_ASC_NODE":210.6746,"ARG_OF_PERICENTER":88.5493,"MEAN_ANOMALY":271.5997,"EPHEMERIS_TYPE":0,"CLASSIFICATION_TYPE":"U","NORAD_CAT_ID":65812,"ELEMENT_SET_NO":999,"REV_AT_EPOCH":1240,"BSTAR":0.00035584112,"MEAN_MOTION_DOT":5.078e-5,"MEAN_MOTION_DDOT":0},{"OBJECT_NAME":"STARLINK-35215","OBJECT_ID":"2025-218Y","EPOCH":"2025-12-16T05:05:04.012800","MEAN_MOTION":15.05657462,"ECCENTRICITY":0.00025111,"INCLINATION":97.6041,"RA_OF_ASC_NODE":210.7477,"ARG_OF_PERICENTER":87.56,"MEAN_ANOMALY":272.5914,"EPHEMERIS_TYPE":0,"CLASSIFICATION_TYPE":"U","NORAD_CAT_ID":65813,"ELEMENT_SET_NO":999,"REV_AT_EPOCH":1241,"BSTAR":0.00045151747,"MEAN_MOTION_DOT":6.462e-5,"MEAN_MOTION_DDOT":0},{"OBJECT_NAME":"STARLINK-35157","OBJECT_ID":"2025-218Z","EPOCH":"2025-12-16T05:01:06.485376","MEAN_MOTION":15.05653447,"ECCENTRICITY":0.00027478,"INCLINATION":97.6041,"RA_OF_ASC_NODE":210.7511,"ARG_OF_PERICENTER":84.0529,"MEAN_ANOMALY":276.1011,"EPHEMERIS_TYPE":0,"CLASSIFICATION_TYPE":"U","NORAD_CAT_ID":65814,"ELEMENT_SET_NO":999,"REV_AT_EPOCH":1241,"BSTAR":0.00057665213,"MEAN_MOTION_DOT":8.271e-5,"MEAN_MOTION_DDOT":0},{"OBJECT_NAME":"STARLINK-35392","OBJECT_ID":"2025-221A","EPOCH":"2025-12-16T01:18:45.170208","MEAN_MOTION":15.30204627,"ECCENTRICITY":5.762e-5,"INCLINATION":53.1577,"RA_OF_ASC_NODE":117.1719,"ARG_OF_PERICENTER":89.8851,"MEAN_ANOMALY":270.2215,"EPHEMERIS_TYPE":0,"CLASSIFICATION_TYPE":"U","NORAD_CAT_ID":65823,"ELEMENT_SET_NO":999,"REV_AT_EPOCH":1327,"BSTAR":0.00039868154,"MEAN_MOTION_DOT":0.00011469,"MEAN_MOTION_DDOT":0},{"OBJECT_NAME":"STARLINK-35281","OBJECT_ID":"2025-221B","EPOCH":"2025-12-15T08:08:43.863648","MEAN_MOTION":15.30208386,"ECCENTRICITY":0.00011434,"INCLINATION":53.1587,"RA_OF_ASC_NODE":120.5281,"ARG_OF_PERICENTER":91.1972,"MEAN_ANOMALY":268.9159,"EPHEMERIS_TYPE":0,"CLASSIFICATION_TYPE":"U","NORAD_CAT_ID":65824,"ELEMENT_SET_NO":999,"REV_AT_EPOCH":1316,"BSTAR":0.00060101228,"MEAN_MOTION_DOT":0.00017488,"MEAN_MOTION_DDOT":0},{"OBJECT_NAME":"STARLINK-35397","OBJECT_ID":"2025-221C","EPOCH":"2025-12-16T08:29:30.562080","MEAN_MOTION":15.30201964,"ECCENTRICITY":0.00018267,"INCLINATION":53.1589,"RA_OF_ASC_NODE":115.4766,"ARG_OF_PERICENTER":86.6216,"MEAN_ANOMALY":273.4994,"EPHEMERIS_TYPE":0,"CLASSIFICATION_TYPE":"U","NORAD_CAT_ID":65825,"ELEMENT_SET_NO":999,"REV_AT_EPOCH":1332,"BSTAR":0.0011147571,"MEAN_MOTION_DOT":0.00032805,"MEAN_MOTION_DDOT":0},{"OBJECT_NAME":"STARLINK-35381","OBJECT_ID":"2025-221D","EPOCH":"2025-12-16T01:53:32.108640","MEAN_MOTION":15.3021589,"ECCENTRICITY":1.167e-5,"INCLINATION":53.1615,"RA_OF_ASC_NODE":116.6032,"ARG_OF_PERICENTER":52.8316,"MEAN_ANOMALY":307.2695,"EPHEMERIS_TYPE":0,"CLASSIFICATION_TYPE":"U","NORAD_CAT_ID":65826,"ELEMENT_SET_NO":999,"REV_AT_EPOCH":1328,"BSTAR":0.00081594281,"MEAN_MOTION_DOT":0.00023897,"MEAN_MOTION_DDOT":0},{"OBJECT_NAME":"STARLINK-35393","OBJECT_ID":"2025-221E","EPOCH":"2025-12-15T09:19:58.976256","MEAN_MOTION":15.30213898,"ECCENTRICITY":9.843e-5,"INCLINATION":53.1584,"RA_OF_ASC_NODE":120.1217,"ARG_OF_PERICENTER":87.8516,"MEAN_ANOMALY":272.2598,"EPHEMERIS_TYPE":0,"CLASSIFICATION_TYPE":"U","NORAD_CAT_ID":65827,"ELEMENT_SET_NO":999,"REV_AT_EPOCH":1317,"BSTAR":0.00066263122,"MEAN_MOTION_DOT":0.00019326,"MEAN_MOTION_DDOT":0},{"OBJECT_NAME":"STARLINK-35396","OBJECT_ID":"2025-221F","EPOCH":"2025-12-16T08:24:56.867616","MEAN_MOTION":15.30213945,"ECCENTRICITY":6.708e-5,"INCLINATION":53.16,"RA_OF_ASC_NODE":115.4571,"ARG_OF_PERICENTER":19.0418,"MEAN_ANOMALY":341.0607,"EPHEMERIS_TYPE":0,"CLASSIFICATION_TYPE":"U","NORAD_CAT_ID":65828,"ELEMENT_SET_NO":999,"REV_AT_EPOCH":1332,"BSTAR":0.00065660509,"MEAN_MOTION_DOT":0.00019146,"MEAN_MOTION_DDOT":0},{"OBJECT_NAME":"STARLINK-35244","OBJECT_ID":"2025-221G","EPOCH":"2025-12-15T15:53:41.019648","MEAN_MOTION":15.3020009,"ECCENTRICITY":4.015e-5,"INCLINATION":53.1579,"RA_OF_ASC_NODE":121.1565,"ARG_OF_PERICENTER":349.1343,"MEAN_ANOMALY":10.9649,"EPHEMERIS_TYPE":0,"CLASSIFICATION_TYPE":"U","NORAD_CAT_ID":65829,"ELEMENT_SET_NO":999,"REV_AT_EPOCH":1314,"BSTAR":0.00058360141,"MEAN_MOTION_DOT":0.00016965,"MEAN_MOTION_DDOT":0}]
