STARLINK-35047          
1 65806U 25218R   25350.17861182  .00003241  00000+0  22867-3 0  9999
2 65806  97.6025 210.6381 0001974  86.3705 273.7748 15.05654245 12409
STARLINK-35285          
1 65807U 25218S   25350.18414952  .00002882  00000+0  20386-3 0  9994
2 65807  97.6022 210.6305 0002561  79.0110 281.1405 15.05654905 12401
STARLINK-34580          
1 65808U 25218T   25350.17584991  .00006017  00000+0  42064-3 0  9996
2 65808  97.6025 210.6413 0001748  77.5763 282.5659 15.05670871 12404
STARLINK-35289          
1 65809U 25218U   25350.16753735  .00003552  00000+0  25025-3 0  9999
2 65809  97.6030 210.6519 0001897  88.9586 271.1858 15.05653588 12403
STARLINK-35268          
1 65810U 25218V   25350.15923265  .00004111  00000+0  28891-3 0  9993
2 65810  97.6044 210.6635 0002216  85.7930 274.3550 15.05654028 12407
STARLINK-35224          
1 65811U 25218W   25350.16200161  .00003752  00000+0  26409-3 0  9991
2 65811  97.6039 210.6597 0002729  76.1343 284.0187 15.05653932 12407
STARLINK-35271          
1 65812U 25218X   25350.15092892  .00005078  00000+0  35584-3 0  9998
2 65812  97.6045 210.6746 0002296  88.5493 271.5997 15.05656257 12406
STARLINK-35215          
1 65813U 25218Y   25350.21185200  .00006462  00000+0  45152-3 0  9992
2 65813  97.6041 210.7477 0002511  87.5600 272.5914 15.05657462 12414
STARLINK-35157          
1 65814U 25218Z   25350.20910284  .00008271  00000+0  57665-3 0  9992
2 65814  97.6041 210.7511 0002747  84.0529 276.1011 15.05653447 12414
STARLINK-35392          
1 65823U 25221A   25350.05468947  .00011469  00000+0  39868-3 0  9991
2 65823  53.1577 117.1719 0000576  89.8851 270.2215 15.30204627 13270
STARLINK-35281          
1 65824U 25221B   25349.33939657  .00017488  00000+0  60101-3 0  9993
2 65824  53.1587 120.5281 0001143  91.1972 268.9159 15.30208386 13160
STARLINK-35397          
1 65825U 25221C   25350.35382595  .00032805  00000+0  11148-2 0  9997
2 65825  53.1589 115.4766 0001826  86.6216 273.4994 15.30201964 13323
STARLINK-35381          
1 65826U 25221D   25350.07884385  .00023897  00000+0  81594-3 0  9995
2 65826  53.1615 116.6032 0000116  52.8316 307.2695 15.30215890 13282
STARLINK-35393          
1 65827U 25221E   25349.38887704  .00019326  00000+0  66263-3 0  9994
2 65827  53.1584 120.1217 0000984  87.8516 272.2598 15.30213898 13173
STARLINK-35396          
1 65828U 25221F   25350.35065819  .00019146  00000+0  65661-3 0  9990
2 65828  53.1600 115.4571 0000670  19.0418 341.0607 15.30213945 13329
STARLINK-35244          
1 65829U 25221G   25349.66228032  .00016965  00000+0  58360-3 0  9995
2 65829  53.1579 121.1565 0000401 349.1343  10.9649 15.30200090 13143
